NORAD_CAT_ID,OBJECT_NAME,OBJECT_TYPE,EPOCH,MEAN_MOTION,ECCENTRICITY,INCLINATION,RA_OF_ASC_NODE,ARG_OF_PERICENTER,MEAN_ANOMALY,BSTAR,MEAN_MOTION_DOT,MEAN_MOTION_DDOT,TLE_LINE0,TLE_LINE1,TLE_LINE2,SEMIMAJOR_AXIS,PERIOD,APOGEE,PERIGEE,DECAYED
55669.0,STARLINK-5459,PAYLOAD,2024-06-15 19:15:11,14.98335745,0.0002832,70.0007,317.6788,267.1886,92.8949,2.4908e-05,2.04e-06,0.0,0 STARLINK-5459,1 55669U 23021AT  24167.80221208  .00000204  00000-0  24908-4 0  9995,2 55669  70.0007 317.6788 0002832 267.1886  92.8949 14.98335745 74630,6950.175,96.107,574.008,570.072,0.0
55669.0,STARLINK-5459,PAYLOAD,2024-06-16 14:28:49,14.9831008,0.0003102,70.0003,315.659,273.2862,86.7942,-0.00018628,-2.314e-05,0.0,0 STARLINK-5459,1 55669U 23021AT  24168.60335143 -.00002314  00000-0 -18628-3 0  9995,2 55669  70.0003 315.6590 0003102 273.2862  86.7942 14.98310080 74751,6950.254,96.108,574.275,569.964,0.0
55669.0,STARLINK-5459,PAYLOAD,2024-06-16 19:17:14,14.98304059,0.0002857,70.0004,315.1539,269.6035,90.4796,-0.00026103,-3.204e-05,0.0,0 STARLINK-5459,1 55669U 23021AT  24168.80363947 -.00003204  00000-0 -26103-3 0  9996,2 55669  70.0004 315.1539 0002857 269.6035  90.4796 14.98304059 74788,6950.273,96.109,574.124,570.152,0.0
55669.0,STARLINK-5459,PAYLOAD,2024-06-17 19:19:14,14.98324203,0.0003045,69.9999,312.6283,270.1274,89.9536,-1.1099e-06,-1.06e-06,0.0,0 STARLINK-5459,1 55669U 23021AT  24169.80503037 -.00000106  00000-0 -11099-5 0  9991,2 55669  69.9999 312.6283 0003045 270.1274  89.9536 14.98324203 74630,6950.211,96.107,574.192,569.959,0.0
55669.0,STARLINK-5459,PAYLOAD,2024-06-18 14:32:51,14.98321498,0.0003018,69.9998,310.6078,269.3418,90.7395,0.00049092,5.768e-05,0.0,0 STARLINK-5459,1 55669U 23021AT  24170.60614896  .00005768  00000-0  49092-3 0  9996,2 55669  69.9998 310.6078 0003018 269.3418  90.7395 14.98321498 75052,6950.219,96.108,574.182,569.987,0.0
55669.0,STARLINK-5459,PAYLOAD,2024-06-18 19:21:15,14.98343901,0.0003021,70.0012,310.1034,271.7255,88.3558,0.00095159,0.00011284,0.0,0 STARLINK-5459,1 55669U 23021AT  24170.80643114  .00011284  00000-0  95159-3 0  9998,2 55669  70.0012 310.1034 0003021 271.7255  88.3558 14.98343901 74785,6950.15,96.106,574.115,569.915,0.0
55669.0,STARLINK-5459,PAYLOAD,2024-06-19 14:34:51,14.98354474,0.0002956,70.0018,308.0831,273.0954,86.9866,0.00050729,5.969e-05,0.0,0 STARLINK-5459,1 55669U 23021AT  24171.60754064  .00005969  00000-0  50729-3 0  9991,2 55669  70.0018 308.0831 0002956 273.0954  86.9866 14.98354474 75200,6950.117,96.105,574.037,569.928,0.0
55669.0,STARLINK-5459,PAYLOAD,2024-06-19 19:23:15,14.98358038,0.0002983,70.0019,307.5781,273.4812,86.6006,0.00051618,6.076e-05,0.0,0 STARLINK-5459,1 55669U 23021AT  24171.80781641  .00006076  00000-0  51618-3 0  9992,2 55669  70.0019 307.5781 0002983 273.4812  86.6006 14.98358038 74938,6950.106,96.105,574.044,569.898,0.0
55669.0,STARLINK-5459,PAYLOAD,2024-06-20 14:36:52,14.98339848,0.0002796,70.002,305.5584,273.692,86.392,-6.3776e-05,-8.54e-06,0.0,0 STARLINK-5459,1 55669U 23021AT  24172.60893631 -.00000854  00000-0 -63776-4 0  9993,2 55669  70.0020 305.5584 0002796 273.6920  86.3920 14.98339848 75350,6950.162,96.106,573.971,570.084,0.0
55669.0,STARLINK-5459,PAYLOAD,2024-06-20 19:25:16,14.98341537,0.0002736,70.0008,305.0541,272.3889,87.6957,2.0246e-05,1.49e-06,0.0,0 STARLINK-5459,1 55669U 23021AT  24172.80921671  .00000149  00000-0  20246-4 0  9991,2 55669  70.0008 305.0541 0002736 272.3889  87.6957 14.98341537 75080,6950.157,96.106,573.924,570.121,0.0
55669.0,STARLINK-5459,PAYLOAD,2024-06-21 14:38:52,14.98339367,0.0002847,70.0005,303.0337,271.4714,88.6119,-4.1345e-05,-5.86e-06,0.0,0 STARLINK-5459,1 55669U 23021AT  24173.61033400 -.00000586  00000-0 -41345-4 0  9995,2 55669  70.0005 303.0337 0002847 271.4714  88.6119 14.98339367 75504,6950.164,96.106,574.008,570.05,0.0
55669.0,STARLINK-5459,PAYLOAD,2024-06-21 17:51:08,14.98339816,0.0002806,70.0007,302.6973,270.5358,89.5479,-3.4659e-05,-5.07e-06,0.0,0 STARLINK-5459,1 55669U 23021AT  24173.74385250 -.00000507  00000-0 -34659-4 0  9995,2 55669  70.0007 302.6973 0002806 270.5358  89.5479 14.98339816 75526,6950.163,96.106,573.978,570.077,0.0
55669.0,STARLINK-5459,PAYLOAD,2024-06-22 13:04:45,14.98331019,0.0002688,70.0008,300.6773,262.9542,97.1312,5.1574e-05,5.22e-06,0.0,0 STARLINK-5459,1 55669U 23021AT  24174.54497351  .00000522  00000-0  51574-4 0  9990,2 55669  70.0008 300.6773 0002688 262.9542  97.1312 14.98331019 75349,6950.19,96.107,573.923,570.187,0.0
55669.0,STARLINK-5459,PAYLOAD,2024-06-22 17:53:09,14.98330451,0.0002704,70.0008,300.1724,263.2863,96.7989,3.9612e-05,3.8e-06,0.0,0 STARLINK-5459,1 55669U 23021AT  24174.74525409  .00000380  00000-0  39612-4 0  9999,2 55669  70.0008 300.1724 0002704 263.2863  96.7989 14.98330451 75679,6950.191,96.107,573.936,570.177,0.0
55669.0,STARLINK-5459,PAYLOAD,2024-06-23 13:06:46,14.98332419,0.0002812,70.0008,298.1536,264.9944,95.0894,6.2017e-05,6.47e-06,0.0,0 STARLINK-5459,1 55669U 23021AT  24175.54637113  .00000647  00000-0  62017-4 0  9995,2 55669  70.0008 298.1536 0002812 264.9944  95.0894 14.98332419 75497,6950.185,96.107,574.005,570.096,0.0
55669.0,STARLINK-5459,PAYLOAD,2024-06-23 14:42:54,14.98332663,0.0002796,70.0007,297.9845,262.6852,97.3989,5.0124e-05,5.05e-06,0.0,0 STARLINK-5459,1 55669U 23021AT  24175.61313100  .00000505  00000-0  50124-4 0  9999,2 55669  70.0007 297.9845 0002796 262.6852  97.3989 14.98332663 75806,6950.185,96.107,573.993,570.106,0.0
55669.0,STARLINK-5459,PAYLOAD,2024-06-23 17:55:10,14.98334797,0.0002827,70.0007,297.6482,265.301,94.7827,7.0283e-05,7.46e-06,0.0,0 STARLINK-5459,1 55669U 23021AT  24175.74664895  .00000746  00000-0  70283-4 0  9998,2 55669  70.0007 297.6482 0002827 265.3010  94.7827 14.98334797 75825,6950.178,96.107,574.008,570.078,0.0
55669.0,STARLINK-5459,PAYLOAD,2024-06-24 13:08:47,14.9833219,0.0002897,70.0007,295.628,265.8997,94.1831,6.8509e-05,7.25e-06,0.0,0 STARLINK-5459,1 55669U 23021AT  24176.54776927  .00000725  00000-0  68509-4 0  9992,2 55669  70.0007 295.6280 0002897 265.8997  94.1831 14.98332190 75649,6950.186,96.107,574.065,570.038,0.0
55669.0,STARLINK-5459,PAYLOAD,2024-06-24 14:44:55,14.98332229,0.0002899,70.0007,295.4597,265.9601,94.1226,6.7494e-05,7.12e-06,0.0,0 STARLINK-5459,1 55669U 23021AT  24176.61452922  .00000712  00000-0  67494-4 0  9994,2 55669  70.0007 295.4597 0002899 265.9601  94.1226 14.98332229 75958,6950.186,96.107,574.066,570.036,0.0
55669.0,STARLINK-5459,PAYLOAD,2024-06-24 17:57:11,14.98334903,0.0002875,70.0008,295.1232,265.8204,94.2626,9.6233e-05,1.056e-05,0.0,0 STARLINK-5459,1 55669U 23021AT  24176.74804656  .00001056  00000-0  96233-4 0  9998,2 55669  70.0008 295.1232 0002875 265.8204  94.2626 14.98334903 75972,6950.178,96.107,574.041,570.045,0.0
55669.0,STARLINK-5459,PAYLOAD,2024-06-25 13:10:48,14.98331106,0.0002872,70.0009,293.1031,268.212,91.871,3.2186e-05,2.91e-06,0.0,0 STARLINK-5459,1 55669U 23021AT  24177.54916927  .00000291  00000-0  32186-4 0  9999,2 55669  70.0009 293.1031 0002872 268.2120  91.8710 14.98331106 75798,6950.189,96.107,574.051,570.058,0.0
55669.0,STARLINK-5459,PAYLOAD,2024-06-25 14:46:56,14.98331165,0.0002882,70.0009,292.935,268.1398,91.9431,4.726e-06,-3.7e-07,0.0,0 STARLINK-5459,1 55669U 23021AT  24177.61592975 -.00000037  00000-0  47260-5 0  9999,2 55669  70.0009 292.9350 0002882 268.1398  91.9431 14.98331165 76108,6950.189,96.107,574.057,570.051,0.0
55669.0,STARLINK-5459,PAYLOAD,2024-06-25 17:59:12,14.98332371,0.0002878,70.0009,292.5986,268.5193,91.5637,1.6204e-05,1e-06,0.0,0 STARLINK-5459,1 55669U 23021AT  24177.74944848  .00000100  00000-0  16204-4 0  9996,2 55669  70.0009 292.5986 0002878 268.5193  91.5637 14.98332371 76127,6950.186,96.107,574.051,570.05,0.0
55669.0,STARLINK-5459,PAYLOAD,2024-06-26 11:36:41,14.98278974,0.0002865,70.0011,290.749,251.6587,108.426,0.0009548,0.00011303,0.0,0 STARLINK-5459,1 55669U 23021AT  24178.48381721  .00011303  00000-0  95480-3 0  9992,2 55669  70.0011 290.7490 0002865 251.6587 108.4260 14.98278974 75932,6950.351,96.11,574.207,570.224,0.0
55669.0,STARLINK-5459,PAYLOAD,2024-06-27 13:14:49,14.98331055,0.0003096,70.0005,288.054,267.4923,92.5882,4.7664e-05,4.76e-06,0.0,0 STARLINK-5459,1 55669U 23021AT  24179.55196669  .00000476  00000-0  47664-4 0  9997,2 55669  70.0005 288.0540 0003096 267.4923  92.5882 14.98331055 76098,6950.19,96.107,574.206,569.903,0.0
55669.0,STARLINK-5459,PAYLOAD,2024-06-27 16:27:05,14.98332458,0.0003085,70.0005,287.7173,268.1095,91.9711,6.2655e-05,6.55e-06,0.0,0 STARLINK-5459,1 55669U 23021AT  24179.68548538  .00000655  00000-0  62655-4 0  9993,2 55669  70.0005 287.7173 0003085 268.1095  91.9711 14.98332458 76410,6950.185,96.107,574.194,569.906,0.0
55669.0,STARLINK-5459,PAYLOAD,2024-06-28 13:16:50,14.98335195,0.0003194,70.0004,285.5298,267.5881,92.4913,0.00010308,1.137e-05,0.0,0 STARLINK-5459,1 55669U 23021AT  24180.55336272  .00001137  00000-0  10308-3 0  9994,2 55669  70.0004 285.5298 0003194 267.5881  92.4913 14.98335195 76242,6950.177,96.107,574.262,569.822,0.0
55669.0,STARLINK-5459,PAYLOAD,2024-06-28 16:29:06,14.98340716,0.0003279,69.9998,285.1927,271.9197,88.1586,0.00014687,1.66e-05,0.0,0 STARLINK-5459,1 55669U 23021AT  24180.68687808  .00001660  00000-0  14687-3 0  9997,2 55669  69.9998 285.1927 0003279 271.9197  88.1586 14.98340716 76567,6950.16,96.106,574.304,569.746,0.0
55669.0,STARLINK-5459,PAYLOAD,2024-06-29 13:18:52,14.98320944,0.0003143,69.9997,283.0033,270.1193,89.9606,-7.7977e-05,-1.023e-05,0.0,0 STARLINK-5459,1 55669U 23021AT  24181.55477726 -.00001023  00000-0 -77977-4 0  9997,2 55669  69.9997 283.0033 0003143 270.1193  89.9606 14.98320944 76392,6950.221,96.108,574.27,569.901,0.0
55669.0,STARLINK-5459,PAYLOAD,2024-06-29 14:55:00,14.98321162,0.0003089,69.9998,282.8354,269.9802,90.1003,-6.9059e-05,-9.17e-06,0.0,0 STARLINK-5459,1 55669U 23021AT  24181.62153743 -.00000917  00000-0 -69059-4 0  9998,2 55669  69.9998 282.8354 0003089 269.9802  90.1003 14.98321162 76701,6950.22,96.108,574.232,569.938,0.0
